[{"OBJECT_NAME":"STARLINK-31033","OBJECT_ID":"2024-002U","EPOCH":"2025-12-25T20:55:21.639936","MEAN_MOTION":15.30192355,"ECCENTRICITY":0.0001551,"INCLINATION":53.1595,"RA_OF_ASC_NODE":212.7978,"ARG_OF_PERICENTER":95.4877,"MEAN_ANOMALY":264.63,"EPHEMERIS_TYPE":0,"CLASSIFICATION_TYPE":"U","NORAD_CAT_ID":58723,"ELEMENT_SET_NO":999,"REV_AT_EPOCH":11071,"BSTAR":9.3787e-5,"MEAN_MOTION_DOT":2.419e-5,"MEAN_MOTION_DDOT":0},{"OBJECT_NAME":"STARLINK-30893","OBJECT_ID":"2024-002V","EPOCH":"2025-12-26T14:41:51.274464","MEAN_MOTION":15.3020184,"ECCENTRICITY":0.0001414,"INCLINATION":53.1589,"RA_OF_ASC_NODE":209.6047,"ARG_OF_PERICENTER":89.784,"MEAN_ANOMALY":270.3323,"EPHEMERIS_TYPE":0,"CLASSIFICATION_TYPE":"U","NORAD_CAT_ID":58724,"ELEMENT_SET_NO":999,"REV_AT_EPOCH":11081,"BSTAR":1.6412597e-5,"MEAN_MOTION_DOT":1.27e-6,"MEAN_MOTION_DDOT":0},{"OBJECT_NAME":"STARLINK-30856","OBJECT_ID":"2024-002W","EPOCH":"2025-12-26T08:00:01.000224","MEAN_MOTION":15.30191231,"ECCENTRICITY":0.00012283,"INCLINATION":53.1604,"RA_OF_ASC_NODE":210.6012,"ARG_OF_PERICENTER":89.5102,"MEAN_ANOMALY":317.9156,"EPHEMERIS_TYPE":0,"CLASSIFICATION_TYPE":"U","NORAD_CAT_ID":58725,"ELEMENT_SET_NO":999,"REV_AT_EPOCH":577,"BSTAR":0.00018880709,"MEAN_MOTION_DOT":5.235e-5,"MEAN_MOTION_DDOT":0},{"OBJECT_NAME":"STARLINK-31115","OBJECT_ID":"2024-005B","EPOCH":"2025-12-26T03:33:38.137248","MEAN_MOTION":15.02529954,"ECCENTRICITY":9.56e-5,"INCLINATION":43.003,"RA_OF_ASC_NODE":260.8336,"ARG_OF_PERICENTER":272.4891,"MEAN_ANOMALY":87.5842,"EPHEMERIS_TYPE":0,"CLASSIFICATION_TYPE":"U","NORAD_CAT_ID":58729,"ELEMENT_SET_NO":999,"REV_AT_EPOCH":10935,"BSTAR":2.2372493e-5,"MEAN_MOTION_DOT":9.9e-7,"MEAN_MOTION_DDOT":0},{"OBJECT_NAME":"STARLINK-31180","OBJECT_ID":"2024-005E","EPOCH":"2025-12-26T10:34:54.709536","MEAN_MOTION":15.02536949,"ECCENTRICITY":8.639e-5,"INCLINATION":42.9994,"RA_OF_ASC_NODE":259.5996,"ARG_OF_PERICENTER":254.4896,"MEAN_ANOMALY":105.5851,"EPHEMERIS_TYPE":0,"CLASSIFICATION_TYPE":"U","NORAD_CAT_ID":58732,"ELEMENT_SET_NO":999,"REV_AT_EPOCH":10939,"BSTAR":0.00029906072,"MEAN_MOTION_DOT":3.839e-5,"MEAN_MOTION_DDOT":0},{"OBJECT_NAME":"STARLINK-31164","OBJECT_ID":"2024-005F","EPOCH":"2025-12-26T09:51:55.093248","MEAN_MOTION":15.02538154,"ECCENTRICITY":0.0001056,"INCLINATION":43.0025,"RA_OF_ASC_NODE":260.224,"ARG_OF_PERICENTER":263.3785,"MEAN_ANOMALY":96.6937,"EPHEMERIS_TYPE":0,"CLASSIFICATION_TYPE":"U","NORAD_CAT_ID":58733,"ELEMENT_SET_NO":999,"REV_AT_EPOCH":10938,"BSTAR":4.9767437e-5,"MEAN_MOTION_DOT":4.69e-6,"MEAN_MOTION_DDOT":0},{"OBJECT_NAME":"STARLINK-31152","OBJECT_ID":"2024-005G","EPOCH":"2025-12-26T01:48:28.999296","MEAN_MOTION":15.02534653,"ECCENTRICITY":0.00010831,"INCLINATION":43.003,"RA_OF_ASC_NODE":262.0041,"ARG_OF_PERICENTER":259.6477,"MEAN_ANOMALY":100.4244,"EPHEMERIS_TYPE":0,"CLASSIFICATION_TYPE":"U","NORAD_CAT_ID":58734,"ELEMENT_SET_NO":999,"REV_AT_EPOCH":10934,"BSTAR":1.5695797e-5,"MEAN_MOTION_DOT":8.0e-8,"MEAN_MOTION_DDOT":0},{"OBJECT_NAME":"STARLINK-31157","OBJECT_ID":"2024-005H","EPOCH":"2025-12-26T11:18:03.232800","MEAN_MOTION":15.02536418,"ECCENTRICITY":0.00014272,"INCLINATION":43.0043,"RA_OF_ASC_NODE":259.809,"ARG_OF_PERICENTER":255.6374,"MEAN_ANOMALY":104.431,"EPHEMERIS_TYPE":0,"CLASSIFICATION_TYPE":"U","NORAD_CAT_ID":58735,"ELEMENT_SET_NO":999,"REV_AT_EPOCH":10940,"BSTAR":2.8910293e-5,"MEAN_MOTION_DOT":1.87e-6,"MEAN_MOTION_DDOT":0},{"OBJECT_NAME":"STARLINK-31076","OBJECT_ID":"2024-005J","EPOCH":"2025-12-26T03:14:37.297824","MEAN_MOTION":15.02533056,"ECCENTRICITY":0.00010677,"INCLINATION":43.0049,"RA_OF_ASC_NODE":261.5914,"ARG_OF_PERICENTER":269.8159,"MEAN_ANOMALY":90.2561,"EPHEMERIS_TYPE":0,"CLASSIFICATION_TYPE":"U","NORAD_CAT_ID":58736,"ELEMENT_SET_NO":999,"REV_AT_EPOCH":10939,"BSTAR":2.703806e-6,"MEAN_MOTION_DOT":-1.67e-6,"MEAN_MOTION_DDOT":0},{"OBJECT_NAME":"STARLINK-31101","OBJECT_ID":"2024-005K","EPOCH":"2025-12-26T03:05:02.836320","MEAN_MOTION":15.0253567,"ECCENTRICITY":0.00010869,"INCLINATION":43.0028,"RA_OF_ASC_NODE":261.5415,"ARG_OF_PERICENTER":263.4957,"MEAN_ANOMALY":96.5761,"EPHEMERIS_TYPE":0,"CLASSIFICATION_TYPE":"U","NORAD_CAT_ID":58737,"ELEMENT_SET_NO":999,"REV_AT_EPOCH":10934,"BSTAR":6.8369745e-5,"MEAN_MOTION_DOT":7.2e-6,"MEAN_MOTION_DDOT":0},{"OBJECT_NAME":"STARLINK-31108","OBJECT_ID":"2024-005L","EPOCH":"2025-12-26T03:09:49.665312","MEAN_MOTION":15.02534264,"ECCENTRICITY":9.569e-5,"INCLINATION":43.0038,"RA_OF_ASC_NODE":261.5668,"ARG_OF_PERICENTER":263.4925,"MEAN_ANOMALY":96.5809,"EPHEMERIS_TYPE":0,"CLASSIFICATION_TYPE":"U","NORAD_CAT_ID":58738,"ELEMENT_SET_NO":999,"REV_AT_EPOCH":10934,"BSTAR":6.9137373e-5,"MEAN_MOTION_DOT":7.3e-6,"MEAN_MOTION_DDOT":0},{"OBJECT_NAME":"STARLINK-31042","OBJECT_ID":"2024-005M","EPOCH":"2025-12-26T10:58:52.637088","MEAN_MOTION":15.02534338,"ECCENTRICITY":9.815e-5,"INCLINATION":43.0029,"RA_OF_ASC_NODE":259.7072,"ARG_OF_PERICENTER":269.0836,"MEAN_ANOMALY":90.9894,"EPHEMERIS_TYPE":0,"CLASSIFICATION_TYPE":"U","NORAD_CAT_ID":58739,"ELEMENT_SET_NO":999,"REV_AT_EPOCH":10940,"BSTAR":3.4947545e-5,"MEAN_MOTION_DOT":2.69e-6,"MEAN_MOTION_DDOT":0},{"OBJECT_NAME":"STARLINK-31159","OBJECT_ID":"2024-005N","EPOCH":"2025-12-26T10:54:05.041728","MEAN_MOTION":15.02532092,"ECCENTRICITY":8.02e-5,"INCLINATION":43.0024,"RA_OF_ASC_NODE":259.6849,"ARG_OF_PERICENTER":276.8302,"MEAN_ANOMALY":83.245,"EPHEMERIS_TYPE":0,"CLASSIFICATION_TYPE":"U","NORAD_CAT_ID":58740,"ELEMENT_SET_NO":999,"REV_AT_EPOCH":10949,"BSTAR":3.0703197e-5,"MEAN_MOTION_DOT":2.11e-6,"MEAN_MOTION_DDOT":0},{"OBJECT_NAME":"STARLINK-31148","OBJECT_ID":"2024-005P","EPOCH":"2025-12-26T10:49:20.191296","MEAN_MOTION":15.02427422,"ECCENTRICITY":9.86e-6,"INCLINATION":43.0034,"RA_OF_ASC_NODE":259.6781,"ARG_OF_PERICENTER":157.4048,"MEAN_ANOMALY":202.6798,"EPHEMERIS_TYPE":0,"CLASSIFICATION_TYPE":"U","NORAD_CAT_ID":58741,"ELEMENT_SET_NO":999,"REV_AT_EPOCH":10940,"BSTAR":0.0016933248,"MEAN_MOTION_DOT":0.00022679,"MEAN_MOTION_DDOT":0},{"OBJECT_NAME":"STARLINK-31151","OBJECT_ID":"2024-005Q","EPOCH":"2025-12-26T13:55:57.035136","MEAN_MOTION":15.02538824,"ECCENTRICITY":0.00011005,"INCLINATION":43.0027,"RA_OF_ASC_NODE":258.9301,"ARG_OF_PERICENTER":256.6853,"MEAN_ANOMALY":103.3867,"EPHEMERIS_TYPE":0,"CLASSIFICATION_TYPE":"U","NORAD_CAT_ID":58742,"ELEMENT_SET_NO":999,"REV_AT_EPOCH":10951,"BSTAR":0.00011518675,"MEAN_MOTION_DOT":1.353e-5,"MEAN_MOTION_DDOT":0},{"OBJECT_NAME":"STARLINK-31156","OBJECT_ID":"2024-005R","EPOCH":"2025-12-26T10:39:42.028416","MEAN_MOTION":15.02533463,"ECCENTRICITY":8.795e-5,"INCLINATION":43.001,"RA_OF_ASC_NODE":259.6273,"ARG_OF_PERICENTER":278.6479,"MEAN_ANOMALY":81.4264,"EPHEMERIS_TYPE":0,"CLASSIFICATION_TYPE":"U","NORAD_CAT_ID":58743,"ELEMENT_SET_NO":999,"REV_AT_EPOCH":10945,"BSTAR":2.9265709e-5,"MEAN_MOTION_DOT":1.92e-6,"MEAN_MOTION_DDOT":0}]
