STARLINK-31033          
1 58723U 24002U   25359.87177824  .00002419  00000+0  93787-4 0  9994
2 58723  53.1595 212.7978 0001551  95.4877 264.6300 15.30192355110718
STARLINK-30893          
1 58724U 24002V   25360.61239901  .00000127  00000+0  16413-4 0  9999
2 58724  53.1589 209.6047 0001414  89.7840 270.3323 15.30201840110818
STARLINK-30856          
1 58725U 24002W   25360.33334491  .00005235  00000+0  18881-3 0  9994
2 58725  53.1604 210.6012 0001228  89.5102 317.9156 15.30191231  5775
STARLINK-31115          
1 58729U 24005B   25360.14835807  .00000099  00000+0  22372-4 0  9991
2 58729  43.0030 260.8336 0000956 272.4891  87.5842 15.02529954109358
STARLINK-31180          
1 58732U 24005E   25360.44091099  .00003839  00000+0  29906-3 0  9999
2 58732  42.9994 259.5996 0000863 254.4896 105.5851 15.02536949109395
STARLINK-31164          
1 58733U 24005F   25360.41105432  .00000469  00000+0  49767-4 0  9998
2 58733  43.0025 260.2240 0001056 263.3785  96.6937 15.02538154109389
STARLINK-31152          
1 58734U 24005G   25360.07533564  .00000008  00000+0  15696-4 0  9995
2 58734  43.0030 262.0041 0001083 259.6477 100.4244 15.02534653109342
STARLINK-31157          
1 58735U 24005H   25360.47087075  .00000187  00000+0  28910-4 0  9992
2 58735  43.0043 259.8090 0001427 255.6374 104.4310 15.02536418109405
STARLINK-31076          
1 58736U 24005J   25360.13515391 -.00000167  00000+0  27038-5 0  9993
2 58736  43.0049 261.5914 0001067 269.8159  90.2561 15.02533056109398
STARLINK-31101          
1 58737U 24005K   25360.12850505  .00000720  00000+0  68370-4 0  9999
2 58737  43.0028 261.5415 0001086 263.4957  96.5761 15.02535670109349
STARLINK-31108          
1 58738U 24005L   25360.13182483  .00000730  00000+0  69137-4 0  9997
2 58738  43.0038 261.5668 0000956 263.4925  96.5809 15.02534264109342
STARLINK-31042          
1 58739U 24005M   25360.45755367  .00000269  00000+0  34948-4 0  9999
2 58739  43.0029 259.7072 0000981 269.0836  90.9894 15.02534338109403
STARLINK-31159          
1 58740U 24005N   25360.45422502  .00000211  00000+0  30703-4 0  9995
2 58740  43.0024 259.6849 0000802 276.8302  83.2450 15.02532092109494
STARLINK-31148          
1 58741U 24005P   25360.45092814  .00022679  00000+0  16933-2 0  9994
2 58741  43.0034 259.6781 0000098 157.4048 202.6798 15.02427422109402
STARLINK-31151          
1 58742U 24005Q   25360.58052124  .00001353  00000+0  11519-3 0  9991
2 58742  43.0027 258.9301 0001100 256.6853 103.3867 15.02538824109511
STARLINK-31156          
1 58743U 24005R   25360.44423644  .00000192  00000+0  29266-4 0  9995
2 58743  43.0010 259.6273 0000879 278.6479  81.4264 15.02533463109454
